,Id,Name,Country,City,Latitude,Longitude
210,1915560000000.0,Tryp Barcelona Apolo Hotel,ES,Barcelona,41.3747031,2.1707106
211,3229820000000.0,Olivia Balmes Hotel,ES,Barcelona,41.392095,2.158493
212,3221230000000.0,Catalonia Barcelona Plaza,ES,Barcelona,41.3750293,2.1491172
213,3358660000000.0,H10 Urquinaona Plaza,ES,Barcelona,41.3892128,2.1726015
214,3393020000000.0,Petit Palace Museum,ES,Barcelona,41.3888014,2.1653738
215,2095940000000.0,Catalonia Magdalenes,ES,Barcelona,41.3861283,2.1745291
216,3384430000000.0,Hotel 1898,ES,Barcelona,41.3834673,2.1712016
217,2637110000000.0,Melia Barcelona Sarri,ES,Barcelona,41.391058,2.141706
218,2619930000000.0,Hotel Arts Barcelona,ES,Barcelona,41.3865424,2.1969665
219,2602750000000.0,Cram,ES,Barcelona,41.3880549,2.1599602
220,3161100000000.0,Eurostars Angli,ES,Barcelona,41.4031654,2.1231637
221,2576980000000.0,Hotel mbit Barcelona,ES,Barcelona,41.3907821,2.1717426
222,3161100000000.0,Catalonia Plaza Catalunya,ES,Barcelona,41.3865289,2.1682919
223,3204050000000.0,Hotel 4 Barcelona,ES,Barcelona,41.3959587,2.2008981
224,2465310000000.0,Pullman Barcelona Skipper,ES,Barcelona,41.3860183,2.19473
225,2388000000000.0,Eurostars Grand Marina Hotel GL,ES,Barcelona,41.371308,2.181698
226,3238410000000.0,Hotel Ronda Lesseps,ES,Barcelona,41.408641,2.1478143
227,3238410000000.0,Zenit Borrell,ES,Barcelona,41.3859873,2.1514021
228,2336460000000.0,Catalonia Passeig de Gr cia 4 Sup,ES,Barcelona,41.3901396,2.1696699
229,2302100000000.0,Majestic Hotel Spa Barcelona GL,ES,Barcelona,41.3935179,2.1639813
230,3324300000000.0,Ilunion Bel Art,ES,Barcelona,41.4101934,2.1695574
231,2241970000000.0,Hotel Miramar Barcelona GL,ES,Barcelona,41.3703041,2.17141
232,2181840000000.0,Acevi Villarroel,ES,Barcelona,41.3853781,2.1567228
233,2173250000000.0,Best Western Premier Hotel Dante,ES,Barcelona,41.3894195,2.1564886
234,2147480000000.0,Ilunion Almirante,ES,Barcelona,41.3860521,2.176157
235,2130300000000.0,Ayre Hotel Caspe,ES,Barcelona,41.3961021,2.1794688
236,2765960000000.0,Catalonia Born,ES,Barcelona,41.3896916,2.1798661
237,3281360000000.0,Petit Palace Boqueria Garden,ES,Barcelona,41.3812223,2.1739622
238,2388000000000.0,H10 Universitat,ES,Barcelona,41.3869565,2.1665338
239,3032250000000.0,Occidental Atenea Mar Adults Only,ES,Barcelona,41.4023621,2.2119049
240,2499670000000.0,Guitart Grand Passage,ES,Barcelona,41.3936071,2.1504611
241,2293510000000.0,Hotel DO Pla a Reial G L,ES,Barcelona,41.3799929,2.1748256
242,2302100000000.0,Room Mate Gerard,ES,Barcelona,41.3919114,2.1765438
243,2027220000000.0,The Level at Melia Barcelona Sky,ES,Barcelona,41.406146,2.2008636
244,3049430000000.0,Hotel Spa Villa Olimpica Suites,ES,Barcelona,41.3971434,2.1921947
245,2027220000000.0,Eurostars Cristal Palace,ES,Barcelona,41.3897945,2.1660575
246,2319280000000.0,Aparthotel Mariano Cubi Barcelona,ES,Barcelona,41.3982129,2.1494179
247,3023660000000.0,Hotel Casa Fuster G L Monumento,ES,Barcelona,41.3980162,2.1581229
248,2327870000000.0,Condes de Barcelona,ES,Barcelona,41.3935497,2.1627098
249,3092380000000.0,Vilana Hotel,ES,Barcelona,41.4047934,2.1288527
250,2336460000000.0,Roger de Ll ria,ES,Barcelona,41.3910786,2.1717285
251,2345050000000.0,H10 Port Vell 4 Sup,ES,Barcelona,41.3815625,2.1838458
252,2465310000000.0,K K Hotel Picasso,ES,Barcelona,41.3866227,2.1840722
253,3040840000000.0,Monument Hotel,ES,Barcelona,41.3939082,2.1622556
254,1992860000000.0,Alma Barcelona GL,ES,Barcelona,41.3945074,2.1632659
255,2370820000000.0,Upper Diagonal,ES,Barcelona,41.39038,2.121
256,1855430000000.0,Crowne Plaza Barcelona Fira Center,ES,Barcelona,41.3725246,2.1540788
257,3332890000000.0,Axel Hotel Barcelona Urban Spa Adults Only,ES,Barcelona,41.3873478,2.1603987
258,2430950000000.0,Hotel Garbi Millenni,ES,Barcelona,41.3759896,2.167148
259,1915560000000.0,U232 Hotel,ES,Barcelona,41.3895237,2.1490307
260,3126740000000.0,Ayre Hotel Gran V a,ES,Barcelona,41.3732462,2.1474351
261,3281360000000.0,Hotel SB Icaria Barcelona,ES,Barcelona,41.3935591,2.1993915
262,3135330000000.0,Mercure Barcelona Condor,ES,Barcelona,41.3999934,2.1452467
263,2800320000000.0,Abba Garden,ES,Barcelona,41.3854716,2.1018835
264,3204050000000.0,NH Sants Barcelona,ES,Barcelona,41.384591,2.1378107
265,2207610000000.0,TWO Hotel Barcelona by Axel 4 Sup Adults Only,ES,Barcelona,41.37913,2.1561186
266,2843270000000.0,Mandarin Oriental Barcelona,ES,Barcelona,41.391393,2.1668467
267,2534030000000.0,Barcel Raval,ES,Barcelona,41.3790126,2.1696339
268,1717990000000.0,Acta Atrium Palace,ES,Barcelona,41.390913,2.1706981
269,2903400000000.0,Hotel Neri,ES,Barcelona,41.3832498,2.1753483
270,2911990000000.0,H10 Itaca,ES,Barcelona,41.3810311,2.1455516
271,2826090000000.0,Barcelona Hotel Colonial,ES,Barcelona,41.3822909,2.1807447
272,3100970000000.0,Vincci Gala,ES,Barcelona,41.3895263,2.1747136
273,3255590000000.0,AC Hotel Barcelona Forum a Marriott Lifestyle Hotel,ES,Barcelona,41.4101306,2.2188047
274,3006480000000.0,Vincci Mae,ES,Barcelona,41.3933943,2.1461315
275,2276330000000.0,Hotel Espa a Ramblas,ES,Barcelona,41.3799209,2.1728181
276,2929170000000.0,Hotel Barcelona Catedral,ES,Barcelona,41.384829,2.1751277
277,1769530000000.0,Sansi Pedralbes,ES,Barcelona,41.39367,2.1115418
278,2516850000000.0,H10 Cubik 4 Sup,ES,Barcelona,41.388024,2.1731556
279,2980710000000.0,Hotel Regina,ES,Barcelona,41.3858891,2.1681652
280,2628520000000.0,Gran Hotel La Florida,ES,Barcelona,41.4253332,2.1211028
281,2980710000000.0,Hotel Gran Derby Suites,ES,Barcelona,41.3900104,2.1422396
282,3264180000000.0,Vincci Bit,ES,Barcelona,41.4114188,2.211756
283,2997890000000.0,Evenia Rossello,ES,Barcelona,41.3920254,2.1554675
284,2113120000000.0,ABaC Restaurant Hotel Barcelona GL Monumento,ES,Barcelona,41.4106944,2.136294
285,3212640000000.0,Pestana Arena Barcelona,ES,Barcelona,41.376801,2.1460443
286,3169690000000.0,Catalonia Eixample 1864,ES,Barcelona,41.393599,2.1684151
287,1881200000000.0,Exe Laietana Palace,ES,Barcelona,41.3833541,2.1794038
288,1666450000000.0,Quality Inn,US,Houston,29.836717,-95.488039
289,627065000000.0,Quality Suites Intercontinental Airport West,US,Houston,29.940256,-95.362277
290,274878000000.0,Embassy Suites By Hilton Houston Downtown,US,Houston,29.752848,-95.361488
291,1108100000000.0,The Houstonian Hotel,US,Houston,29.768461,-95.459631
292,1460290000000.0,La Quinta Inn-houston,US,Houston,29.773048,-95.206568
293,1194000000000.0,Hilton Americas-houston,US,Houston,29.75143553,-95.36045909
294,1477470000000.0,La Quinta Inn,US,Houston,29.970456,-95.558938
295,2379410000000.0,Holiday Inn London Bloomsbury,GB,London,51.5241248,-0.1258066
296,3229820000000.0,Saint Georges Hotel,GB,London,51.517839,-0.1424476
297,2473900000000.0,Rafayel Hotel Spa,GB,London,51.4703604,-0.1779869
298,3161100000000.0,The Cumberland A Guoman Hotel,GB,London,51.514879,-0.1606501
299,3238410000000.0,The Kings Head Hotel,GB,London,51.5079153,-0.2730145
300,1717990000000.0,London Bridge Hotel,GB,London,51.5052188,-0.088166
301,1812480000000.0,The May Fair Hotel,GB,London,51.5078943,-0.1436707
302,2422360000000.0,Charlotte Street Hotel,GB,London,51.5184158,-0.1348509
303,1726580000000.0,London Marriott Maida Vale,GB,London,51.5357597,-0.1902591
304,2422360000000.0,Shepherd s Bush Boutique Hotel,GB,London,51.5054544,-0.2262216
305,2413770000000.0,Hilton London Angel Islington,GB,London,51.5360906,-0.1048176
306,2396590000000.0,Amba Hotel Charing Cross,GB,London,51.508236,-0.1261963
307,3221230000000.0,Doubletree By Hilton London Greenwich,GB,London,51.474469,-0.019428
308,2396590000000.0,DoubleTree by Hilton Hotel London Marble Arch,GB,London,51.514573,-0.15666
309,1743760000000.0,Grange White Hall Hotel,GB,London,51.5203469,-0.1260893
310,3118150000000.0,Milestone Hotel Kensington,GB,London,51.5020425,-0.1866541
311,1795300000000.0,Novotel London City South,GB,London,51.5054832,-0.0951196
312,2370820000000.0,The Academy,GB,London,51.5205441,-0.1308091
313,2388000000000.0,Lansbury Heritage Hotel,GB,London,51.5090985,-0.0157302
314,2302100000000.0,St George Hotel,GB,London,51.5182768,-0.1583511
