,Id,Name,Country,City,Latitude,Longitude
0,2989300000000.0,Swiss tel Amsterdam,NL,Amsterdam,52.3735266,4.8933041
1,2199020000000.0,NH Amsterdam Caransa,NL,Amsterdam,52.3664077,4.8969091
2,3350070000000.0,Hotel Arena,NL,Amsterdam,52.3605759,4.9159683
3,2241970000000.0,Waldorf Astoria Amsterdam,NL,Amsterdam,52.364768,4.896945
4,2259150000000.0,Best Western Plus Hotel Blue Square,NL,Amsterdam,52.3786823,4.8207833
5,2284920000000.0,Mercure Hotel Amsterdam West,NL,Amsterdam,52.3375677,4.8178172
6,2422360000000.0,Hotel Die Port van Cleve,NL,Amsterdam,52.3741426,4.8907741
7,2310690000000.0,NH Collection Amsterdam Barbizon Palace,NL,Amsterdam,52.3764175,4.9002201
8,2284920000000.0,Amsterdam Marriott Hotel,NL,Amsterdam,52.362514,4.8800077
9,2980710000000.0,Element Amsterdam,NL,Amsterdam,52.3312406,4.8774466
10,2954940000000.0,art otel Amsterdam,NL,Amsterdam,52.377743,4.897057
11,2302100000000.0,Sir Albert Hotel,NL,Amsterdam,52.3544507,4.8875036
12,3418790000000.0,Room Mate Aitana,NL,Amsterdam,52.3846059,4.8941866
13,2310690000000.0,NH Amsterdam Schiller,NL,Amsterdam,52.3657092,4.8966912
14,2224790000000.0,Radisson Blu Hotel Amsterdam,NL,Amsterdam,52.3702469,4.8966743
15,2705830000000.0,Best Western Premier Hotel Couture,NL,Amsterdam,52.3511137,4.8411629
16,2731600000000.0,Hotel Roemer Amsterdam,NL,Amsterdam,52.3617577,4.8780052
17,3100970000000.0,INK Hotel Amsterdam MGallery by Sofitel,NL,Amsterdam,52.3754926,4.8929878
18,3238410000000.0,Ambassade Hotel,NL,Amsterdam,52.369391,4.8871721
19,2817500000000.0,Golden Tulip Amsterdam Riverside,NL,Amsterdam,52.3154533,4.9962997
20,2216200000000.0,Mercure Hotel Amsterdam City South,NL,Amsterdam,52.335182,4.9138688
21,3040840000000.0,Inntel Hotels Amsterdam Centre,NL,Amsterdam,52.3760456,4.8943917
22,3023660000000.0,Hotel Amsterdam De Roode Leeuw,NL,Amsterdam,52.373704,4.893591
23,2362230000000.0,WestCord Art Hotel Amsterdam 4 stars,NL,Amsterdam,52.3924898,4.8683822
24,2980710000000.0,Hotel Okura Amsterdam,NL,Amsterdam,52.3487635,4.8938829
25,2980710000000.0,Fletcher Hotel Amsterdam,NL,Amsterdam,52.2924567,4.9444338
26,2551210000000.0,Novotel Amsterdam City,NL,Amsterdam,52.333803,4.8884708
27,2628520000000.0,Holiday Inn Amsterdam,NL,Amsterdam,52.3351951,4.8885354
28,2997890000000.0,WestCord Fashion Hotel Amsterdam,NL,Amsterdam,52.357655,4.844576
29,2662880000000.0,Hotel V Nesplein,NL,Amsterdam,52.3711037,4.8936787
30,3212640000000.0,Luxury Suites Amsterdam,NL,Amsterdam,52.3702613,4.9032489
31,3143920000000.0,M venpick Hotel Amsterdam City Centre,NL,Amsterdam,52.3781016,4.9142508
32,1898380000000.0,Mercure Hotel Amsterdam Centre Canal District,NL,Amsterdam,52.3611852,4.8936341
33,2576980000000.0,Park Plaza Vondelpark Amsterdam,NL,Amsterdam,52.3542655,4.8664365
34,2911990000000.0,NH Amsterdam Museum Quarter,NL,Amsterdam,52.3560923,4.8858229
35,3092380000000.0,Albus Hotel Amsterdam City Centre,NL,Amsterdam,52.365823,4.893243
36,2834680000000.0,Amadi Park Hotel,NL,Amsterdam,52.364962,4.873495
37,2525440000000.0,Ramada Apollo Amsterdam Centre,NL,Amsterdam,52.3681299,4.8440847
38,3418790000000.0,The College Hotel,NL,Amsterdam,52.3527675,4.88373
39,3427380000000.0,Hampshire Hotel Amsterdam American,NL,Amsterdam,52.363889,4.881302
40,2757370000000.0,Royal Amsterdam Hotel,NL,Amsterdam,52.3657281,4.8972883
41,1786710000000.0,Crowne Plaza Amsterdam South,NL,Amsterdam,52.3357326,4.8743947
42,2121710000000.0,NH Collection Amsterdam Doelen,NL,Amsterdam,52.3681919,4.8957609
43,1821070000000.0,Conservatorium Hotel,NL,Amsterdam,52.358631,4.8786236
44,1838250000000.0,Chasse Hotel,NL,Amsterdam,52.3696719,4.8614475
45,2748780000000.0,NH Carlton Amsterdam,NL,Amsterdam,52.3663727,4.8930505
46,2723010000000.0,Renaissance Amsterdam Hotel,NL,Amsterdam,52.377955,4.894641
47,1752350000000.0,NH Amsterdam Zuid,NL,Amsterdam,52.3266672,4.8800884
48,3315710000000.0,Hampshire Hotel The Manor Amsterdam,NL,Amsterdam,52.3591467,4.9263601
49,3006480000000.0,Urban Lodge Hotel,NL,Amsterdam,52.3856494,4.834443
50,1941330000000.0,Andaz Amsterdam Prinsengracht A Hyatt Hotel,NL,Amsterdam,52.3678368,4.8830788
51,1958510000000.0,DoubleTree by Hilton Hotel Amsterdam NDSM Wharf,NL,Amsterdam,52.4001813,4.8936653
52,2001450000000.0,Apollo Hotel Amsterdam,NL,Amsterdam,52.3486098,4.8844292
53,2783140000000.0,Dikker en Thijs Fenice Hotel,NL,Amsterdam,52.364971,4.8839827
54,2181840000000.0,Best Western Delphi Hotel,NL,Amsterdam,52.3504558,4.8770194
55,3143920000000.0,NH Amsterdam Noord,NL,Amsterdam,52.3923684,4.9110442
56,2482490000000.0,Hotel Esther a,NL,Amsterdam,52.3705447,4.8886439
57,2121710000000.0,Grand Hotel Downtown,NL,Amsterdam,52.36513,4.8729422
58,1941330000000.0,NH City Centre Amsterdam,NL,Amsterdam,52.3697554,4.8887815
59,2920580000000.0,Best Western Blue Tower Hotel,NL,Amsterdam,52.3793659,4.8457179
60,2001450000000.0,Amsterdam Canal Residence,NL,Amsterdam,52.3594783,4.895853
61,2010040000000.0,Golden Tulip Amsterdam West,NL,Amsterdam,52.385601,4.8470597
62,1752350000000.0,Pillows Anna van den Vondel Amsterdam,NL,Amsterdam,52.3607413,4.8695315
63,2534030000000.0,Sofitel Legend The Grand Amsterdam,NL,Amsterdam,52.370835,4.895403
64,2156070000000.0,Bilderberg Garden Hotel,NL,Amsterdam,52.3511447,4.8740764
65,2130300000000.0,The Toren,NL,Amsterdam,52.3758754,4.8859642
66,2525440000000.0,W Amsterdam,NL,Amsterdam,52.3727871,4.8900059
67,1924150000000.0,De L Europe Amsterdam,NL,Amsterdam,52.3678779,4.8948936
68,1795300000000.0,Hampshire Hotel Rembrandt Square Amsterdam,NL,Amsterdam,52.3663466,4.8985764
69,3393020000000.0,Banks Mansion All Inclusive Hotel,NL,Amsterdam,52.3653868,4.8931979
70,1915560000000.0,Hotel Seven One Seven,NL,Amsterdam,52.3648077,4.8853962
71,1726580000000.0,Hampton by Hilton Amsterdam Centre East,NL,Amsterdam,52.3714428,4.9346331
72,3049430000000.0,Park Hotel,NL,Amsterdam,52.3613814,4.8832594
73,2585570000000.0,citizenM Amsterdam,NL,Amsterdam,52.3419432,4.8759604
74,1941330000000.0,Hyatt Regency Amsterdam,NL,Amsterdam,52.3617751,4.9118187
75,2027220000000.0,Grand Hotel Amr th Amsterdam,NL,Amsterdam,52.3744149,4.9041443
76,1881200000000.0,Park Plaza Victoria Amsterdam,NL,Amsterdam,52.377278,4.897818
77,3393020000000.0,Hotel De Hallen,NL,Amsterdam,52.3677568,4.8682174
78,2748780000000.0,Mercure Amsterdam Sloterdijk Station,NL,Amsterdam,52.3872884,4.8349748
79,3367250000000.0,The Hoxton Amsterdam,NL,Amsterdam,52.3718665,4.8873794
80,2345050000000.0,NH Collection Amsterdam Grand Hotel Krasnapolsky,NL,Amsterdam,52.3727067,4.8943658
81,2894810000000.0,Apollofirst Boutique Hotel,NL,Amsterdam,52.350396,4.8756404
82,2018630000000.0,Boutique Hotel Notting Hill,NL,Amsterdam,52.3583821,4.8988777
83,2413770000000.0,NH Amsterdam Centre,NL,Amsterdam,52.3630682,4.8794451
84,2310690000000.0,Hotel JL No76,NL,Amsterdam,52.3595919,4.8801587
85,3109560000000.0,Canal House,NL,Amsterdam,52.3763099,4.8862701
86,2113120000000.0,Savoy Hotel Amsterdam,NL,Amsterdam,52.3497431,4.8911908
87,2362230000000.0,InterContinental Amstel Amsterdam,NL,Amsterdam,52.3600068,4.9051643
88,3238410000000.0,Corendon Vitality Hotel Amsterdam,NL,Amsterdam,52.3466449,4.8310984
89,3255590000000.0,Hotel V Fizeaustraat,NL,Amsterdam,52.3451511,4.9252372
90,2379410000000.0,Amadi Panorama Hotel,NL,Amsterdam,52.3588806,4.9886041
91,3066610000000.0,Pulitzer Amsterdam,NL,Amsterdam,52.3728353,4.883326
92,3109560000000.0,Catalonia Diagonal Centro,ES,Barcelona,41.3938632,2.1568039
93,2680060000000.0,H10 Metropolitan 4 Sup,ES,Barcelona,41.3875467,2.1673975
94,2001450000000.0,Hotel Alimara,ES,Barcelona,41.4337561,2.147327
95,2662880000000.0,Le M ridien Barcelona,ES,Barcelona,41.3837453,2.171014
96,3410200000000.0,Fairmont Rey Juan Carlos I,ES,Barcelona,41.3835246,2.1096141
97,2095940000000.0,Medinaceli,ES,Barcelona,41.3781685,2.1786627
98,3075200000000.0,Silken Gran Hotel Havana,ES,Barcelona,41.3927101,2.1722139
99,3040840000000.0,Catalonia Catedral,ES,Barcelona,41.3846637,2.1740902
100,2156070000000.0,H10 Casanova,ES,Barcelona,41.3842608,2.1609471
101,3315710000000.0,Vincci Maritimo,ES,Barcelona,41.4082054,2.2124626
102,2697240000000.0,Catalonia La Pedrera,ES,Barcelona,41.3986093,2.1625037
103,3384430000000.0,Ohla Barcelona,ES,Barcelona,41.3870479,2.174336
104,2714420000000.0,Hotel Murmuri Barcelona,ES,Barcelona,41.3941625,2.1597836
